start=new Date('2023-02-12T00:00:00.000Z').valueOf();
sats=[{"GP_ID":"225184502","DECAY_DATE":null,"SITE":"AFETR","PERIAPSIS":"538.522","ARG_OF_PERICENTER":"115.4453","RA_OF_ASC_NODE":"57.6040","APOAPSIS":"540.942","TLE_LINE2":"2 52478  53.2153  57.6040 0001749 115.4453 244.6720 15.08844388 44050","COUNTRY_CODE":"US","OBJECT_ID":"2022-049AD","LAUNCH_DATE":"2022-05-06","MEAN_MOTION_DOT":"0.00001973","MEAN_MOTION_DDOT":"0.0000000000000","TIME_SYSTEM":"UTC","EPOCH":"2023-02-11T07:49:56.610624","MEAN_MOTION":"15.08844388","MEAN_ELEMENT_THEORY":"SGP4","OBJECT_NAME":"STARLINK-3825","PERIOD":"95.437","MEAN_ANOMALY":"244.6720","EPHEMERIS_TYPE":"0","RCS_SIZE":"LARGE","CENTER_NAME":"EARTH","ELEMENT_SET_NO":"999","CLASSIFICATION_TYPE":"U","TLE_LINE1":"1 52478U 22049AD  23042.32634966  .00001973  00000-0  14199-3 0  9990","NORAD_CAT_ID":"52478","SEMIMAJOR_AXIS":"6917.867","ECCENTRICITY":"0.00017490","BSTAR":"0.00014199000000","INCLINATION":"53.2153","FILE":"3786577","OBJECT_TYPE":"PAYLOAD","REF_FRAME":"TEME","REV_AT_EPOCH":"4405"},{"PERIOD":"95.437","OBJECT_NAME":"STARLINK-3878","MEAN_MOTION":"15.08841995","MEAN_ELEMENT_THEORY":"SGP4","EPOCH":"2023-02-11T17:44:46.934304","MEAN_MOTION_DOT":"-0.00000629","LAUNCH_DATE":"2022-05-06","MEAN_MOTION_DDOT":"0.0000000000000","TIME_SYSTEM":"UTC","RA_OF_ASC_NODE":"45.7505","ARG_OF_PERICENTER":"110.7345","COUNTRY_CODE":"US","OBJECT_ID":"2022-049AE","APOAPSIS":"540.677","TLE_LINE2":"2 52479  53.2178  45.7505 0001355 110.7345 249.3793 15.08841995 44258","PERIAPSIS":"538.802","GP_ID":"225185753","DECAY_DATE":null,"SITE":"AFETR","REV_AT_EPOCH":"4425","REF_FRAME":"TEME","FILE":"3786577","OBJECT_TYPE":"PAYLOAD","BSTAR":"-0.00002142000000","INCLINATION":"53.2178","SEMIMAJOR_AXIS":"6917.874","ECCENTRICITY":"0.00013550","TLE_LINE1":"1 52479U 22049AE  23042.73943211 -.00000629  00000-0 -21420-4 0  9997","CLASSIFICATION_TYPE":"U","NORAD_CAT_ID":"52479","ELEMENT_SET_NO":"999","CENTER_NAME":"EARTH","MEAN_ANOMALY":"249.3793","RCS_SIZE":"LARGE","EPHEMERIS_TYPE":"0"},{"SITE":"AFETR","GP_ID":"225122377","DECAY_DATE":null,"PERIAPSIS":"538.259","COUNTRY_CODE":"US","OBJECT_ID":"2022-049AF","APOAPSIS":"541.044","TLE_LINE2":"2 52480  53.2161  56.7329 0002013 126.3239 233.7939 15.08870776 42846","ARG_OF_PERICENTER":"126.3239","RA_OF_ASC_NODE":"56.7329","MEAN_MOTION_DDOT":"0.0000000000000","TIME_SYSTEM":"UTC","MEAN_MOTION_DOT":"0.00025193","LAUNCH_DATE":"2022-05-06","EPOCH":"2023-02-11T12:30:47.768544","MEAN_ELEMENT_THEORY":"SGP4","MEAN_MOTION":"15.08870776","PERIOD":"95.436","OBJECT_NAME":"STARLINK-3839","RCS_SIZE":"LARGE","EPHEMERIS_TYPE":"0","MEAN_ANOMALY":"233.7939","ELEMENT_SET_NO":"999","CENTER_NAME":"EARTH","TLE_LINE1":"1 52480U 22049AF  23042.52138621  .00025193  00000-0  15940-2 0  9996","NORAD_CAT_ID":"52480","CLASSIFICATION_TYPE":"U","ECCENTRICITY":"0.00020130","SEMIMAJOR_AXIS":"6917.786","INCLINATION":"53.2161","BSTAR":"0.00159400000000","OBJECT_TYPE":"PAYLOAD","FILE":"3786144","REV_AT_EPOCH":"4284","REF_FRAME":"TEME"},{"CENTER_NAME":"EARTH","ELEMENT_SET_NO":"999","MEAN_ANOMALY":"269.3723","EPHEMERIS_TYPE":"0","RCS_SIZE":"LARGE","SEMIMAJOR_AXIS":"6917.870","ECCENTRICITY":"0.00015740","CLASSIFICATION_TYPE":"U","TLE_LINE1":"1 52481U 22049AG  23042.72747212  .00002799  00000-0  19387-3 0  9998","NORAD_CAT_ID":"52481","FILE":"3786577","OBJECT_TYPE":"PAYLOAD","BSTAR":"0.00019387000000","INCLINATION":"53.2147","REF_FRAME":"TEME","REV_AT_EPOCH":"4411","PERIAPSIS":"538.646","GP_ID":"225184753","DECAY_DATE":null,"SITE":"AFETR","LAUNCH_DATE":"2022-05-06","MEAN_MOTION_DOT":"0.00002799","MEAN_MOTION_DDOT":"0.0000000000000","TIME_SYSTEM":"UTC","ARG_OF_PERICENTER":"90.7449","RA_OF_ASC_NODE":"55.8111","TLE_LINE2":"2 52481  53.2147  55.8111 0001574  90.7449 269.3723 15.08843334 44116","APOAPSIS":"540.824","COUNTRY_CODE":"US","OBJECT_ID":"2022-049AG","EPOCH":"2023-02-11T17:27:33.591168","OBJECT_NAME":"STARLINK-3842","PERIOD":"95.437","MEAN_MOTION":"15.08843334","MEAN_ELEMENT_THEORY":"SGP4"},{"OBJECT_TYPE":"PAYLOAD","FILE":"3786535","INCLINATION":"53.2183","BSTAR":"0.00025343000000","REV_AT_EPOCH":"4321","REF_FRAME":"TEME","ELEMENT_SET_NO":"999","CENTER_NAME":"EARTH","RCS_SIZE":"LARGE","EPHEMERIS_TYPE":"0","MEAN_ANOMALY":"258.3941","ECCENTRICITY":"0.00013800","SEMIMAJOR_AXIS":"6917.896","NORAD_CAT_ID":"52482","TLE_LINE1":"1 52482U 22049AH  23042.99703980  .00003747  00000-0  25343-3 0  9995","CLASSIFICATION_TYPE":"U","EPOCH":"2023-02-11T23:55:44.238720","PERIOD":"95.438","OBJECT_NAME":"STARLINK-3813","MEAN_ELEMENT_THEORY":"SGP4","MEAN_MOTION":"15.08834792","PERIAPSIS":"538.807","SITE":"AFETR","GP_ID":"225160650","DECAY_DATE":null,"TIME_SYSTEM":"UTC","MEAN_MOTION_DDOT":"0.0000000000000","MEAN_MOTION_DOT":"0.00003747","LAUNCH_DATE":"2022-05-06","OBJECT_ID":"2022-049AH","COUNTRY_CODE":"US","APOAPSIS":"540.716","TLE_LINE2":"2 52482  53.2183  44.5911 0001380 101.7206 258.3941 15.08834792 43217","ARG_OF_PERICENTER":"101.7206","RA_OF_ASC_NODE":"44.5911"},{"REV_AT_EPOCH":"4425","REF_FRAME":"TEME","INCLINATION":"53.2188","BSTAR":"0.00064086000000","OBJECT_TYPE":"PAYLOAD","FILE":"3786577","CLASSIFICATION_TYPE":"U","TLE_LINE1":"1 52483U 22049AJ  23042.74311364  .00009930  00000-0  64086-3 0  9997","NORAD_CAT_ID":"52483","ECCENTRICITY":"0.00013390","SEMIMAJOR_AXIS":"6917.838","RCS_SIZE":"LARGE","EPHEMERIS_TYPE":"0","MEAN_ANOMALY":"272.4138","ELEMENT_SET_NO":"999","CENTER_NAME":"EARTH","MEAN_ELEMENT_THEORY":"SGP4","MEAN_MOTION":"15.08853815","PERIOD":"95.437","OBJECT_NAME":"STARLINK-3875","EPOCH":"2023-02-11T17:50:05.018496","OBJECT_ID":"2022-049AJ","COUNTRY_CODE":"US","APOAPSIS":"540.629","TLE_LINE2":"2 52483  53.2188  45.7300 0001339  87.7007 272.4138 15.08853815 44251","RA_OF_ASC_NODE":"45.7300","ARG_OF_PERICENTER":"87.7007","MEAN_MOTION_DDOT":"0.0000000000000","TIME_SYSTEM":"UTC","MEAN_MOTION_DOT":"0.00009930","LAUNCH_DATE":"2022-05-06","SITE":"AFETR","GP_ID":"225185253","DECAY_DATE":null,"PERIAPSIS":"538.777"},{"GP_ID":"225122877","DECAY_DATE":null,"SITE":"AFETR","PERIAPSIS":"538.660","RA_OF_ASC_NODE":"56.7544","ARG_OF_PERICENTER":"95.3236","COUNTRY_CODE":"US","OBJECT_ID":"2022-049AK","TLE_LINE2":"2 52484  53.2160  56.7544 0001470  95.3236 264.7924 15.08862525 42847","APOAPSIS":"540.693","LAUNCH_DATE":"2022-05-06","MEAN_MOTION_DOT":"0.00010620","MEAN_MOTION_DDOT":"0.0000000000000","TIME_SYSTEM":"UTC","EPOCH":"2023-02-11T12:25:30.027360","MEAN_MOTION":"15.08862525","MEAN_ELEMENT_THEORY":"SGP4","PERIOD":"95.436","OBJECT_NAME":"STARLINK-3887","MEAN_ANOMALY":"264.7924","RCS_SIZE":"LARGE","EPHEMERIS_TYPE":"0","ELEMENT_SET_NO":"999","CENTER_NAME":"EARTH","CLASSIFICATION_TYPE":"U","TLE_LINE1":"1 52484U 22049AK  23042.51770865  .00010620  00000-0  68390-3 0  9998","NORAD_CAT_ID":"52484","SEMIMAJOR_AXIS":"6917.812","ECCENTRICITY":"0.00014700","BSTAR":"0.00068390000000","INCLINATION":"53.2160","FILE":"3786144","OBJECT_TYPE":"PAYLOAD","REV_AT_EPOCH":"4284","REF_FRAME":"TEME"},{"TLE_LINE2":"2 52485  53.2161  45.7644 0001456  96.9918 263.1240 15.08854593 43016","APOAPSIS":"540.708","COUNTRY_CODE":"US","OBJECT_ID":"2022-049AL","ARG_OF_PERICENTER":"96.9918","RA_OF_ASC_NODE":"45.7644","MEAN_MOTION_DDOT":"0.0000000000000","TIME_SYSTEM":"UTC","MEAN_MOTION_DOT":"0.00019591","LAUNCH_DATE":"2022-05-06","SITE":"AFETR","GP_ID":"225184253","DECAY_DATE":null,"PERIAPSIS":"538.694","MEAN_ELEMENT_THEORY":"SGP4","MEAN_MOTION":"15.08854593","OBJECT_NAME":"STARLINK-3913","PERIOD":"95.437","EPOCH":"2023-02-11T17:39:28.975392","TLE_LINE1":"1 52485U 22049AL  23042.73575203  .00019591  00000-0  12451-2 0  9994","NORAD_CAT_ID":"52485","CLASSIFICATION_TYPE":"U","ECCENTRICITY":"0.00014560","SEMIMAJOR_AXIS":"6917.836","EPHEMERIS_TYPE":"0","RCS_SIZE":"LARGE","MEAN_ANOMALY":"263.1240","CENTER_NAME":"EARTH","ELEMENT_SET_NO":"999","REF_FRAME":"TEME","REV_AT_EPOCH":"4301","INCLINATION":"53.2161","BSTAR":"0.00124510000000","OBJECT_TYPE":"PAYLOAD","FILE":"3786577"},{"MEAN_ANOMALY":"264.7323","RCS_SIZE":"LARGE","EPHEMERIS_TYPE":"0","ELEMENT_SET_NO":"999","CENTER_NAME":"EARTH","TLE_LINE1":"1 52486U 22049AM  23042.31163175  .00001941  00000-0  14002-3 0  9995","NORAD_CAT_ID":"52486","CLASSIFICATION_TYPE":"U","SEMIMAJOR_AXIS":"6917.864","ECCENTRICITY":"0.00015830","BSTAR":"0.00014002000000","INCLINATION":"53.2168","FILE":"3786577","OBJECT_TYPE":"PAYLOAD","REV_AT_EPOCH":"4281","REF_FRAME":"TEME","GP_ID":"225184503","DECAY_DATE":null,"SITE":"AFETR","PERIAPSIS":"538.633","RA_OF_ASC_NODE":"57.6808","ARG_OF_PERICENTER":"95.3850","COUNTRY_CODE":"US","OBJECT_ID":"2022-049AM","APOAPSIS":"540.824","TLE_LINE2":"2 52486  53.2168  57.6808 0001583  95.3850 264.7323 15.08845517 42819","LAUNCH_DATE":"2022-05-06","MEAN_MOTION_DOT":"0.00001941","MEAN_MOTION_DDOT":"0.0000000000000","TIME_SYSTEM":"UTC","EPOCH":"2023-02-11T07:28:44.983200","MEAN_MOTION":"15.08845517","MEAN_ELEMENT_THEORY":"SGP4","PERIOD":"95.437","OBJECT_NAME":"STARLINK-3918"},{"ECCENTRICITY":"0.00014060","SEMIMAJOR_AXIS":"6922.872","CLASSIFICATION_TYPE":"U","TLE_LINE1":"1 52487U 22049AN  23042.74283508  .00002659  00000-0  19320-3 0  9991","NORAD_CAT_ID":"52487","ELEMENT_SET_NO":"999","CENTER_NAME":"EARTH","RCS_SIZE":"LARGE","EPHEMERIS_TYPE":"0","MEAN_ANOMALY":"262.5774","REV_AT_EPOCH":"4425","REF_FRAME":"TEME","OBJECT_TYPE":"PAYLOAD","FILE":"3786577","INCLINATION":"53.2189","BSTAR":"0.00019320000000","MEAN_MOTION_DDOT":"0.0000000000000","TIME_SYSTEM":"UTC","LAUNCH_DATE":"2022-05-06","MEAN_MOTION_DOT":"0.00002659","OBJECT_ID":"2022-049AN","COUNTRY_CODE":"US","TLE_LINE2":"2 52487  53.2189  45.7963 0001406  97.5377 262.5774 15.07208557 44257","APOAPSIS":"545.710","ARG_OF_PERICENTER":"97.5377","RA_OF_ASC_NODE":"45.7963","PERIAPSIS":"543.763","SITE":"AFETR","GP_ID":"225185754","DECAY_DATE":null,"PERIOD":"95.541","OBJECT_NAME":"STARLINK-3902","MEAN_ELEMENT_THEORY":"SGP4","MEAN_MOTION":"15.07208557","EPOCH":"2023-02-11T17:49:40.950912"}];
